{"type": "FeatureCollection", "features": [ {"type": "Feature", "properties": {"norad_id": 66876, "name": "STARLINK-35702", "group": "last-30-days", "lat": 39.199628173483404, "lon": -148.5839923946505, "alt_km": 337.9276603096814, "timestamp": "2025-12-17T13:48:36.281030+00:00", "meta": {"OBJECT_NAME": "STARLINK-35702", "OBJECT_ID": "2025-281AE", "EPOCH": "2025-12-17T06:00:00.999648", "MEAN_MOTION": 15.76760828, "ECCENTRICITY": 0.00018752, "INCLINATION": 43.0007, "RA_OF_ASC_NODE": 94.4637, "ARG_OF_PERICENTER": 267.8253, "MEAN_ANOMALY": 155.4645, "EPHEMERIS_TYPE": 0, "CLASSIFICATION_TYPE": "U", "NORAD_CAT_ID": 66876, "ELEMENT_SET_NO": 999, "REV_AT_EPOCH": 215, "BSTAR": -0.011027549, "MEAN_MOTION_DOT": -0.0162584, "MEAN_MOTION_DDOT": 0}, "tle": {"line1": "1 66876U 25281AE  25351.25001157 -.01625840  00000+0 -11028-1 0  9998", "line2": "2 66876  43.0007  94.4637 0001875 267.8253 155.4645 15.76760828  2154"}}, "geometry": {"type": "Point", "coordinates": [-148.5839923946505, 39.199628173483404]}}, {"type": "Feature", "properties": {"norad_id": 66877, "name": "ZQ-3 R/B", "group": "last-30-days", "lat": -56.58695291357413, "lon": -60.255277171718625, "alt_km": 237.83364039354274, "timestamp": "2025-12-17T13:48:36.281039+00:00", "meta": {"OBJECT_NAME": "ZQ-3 R/B", "OBJECT_ID": "2025-282A", "EPOCH": "2025-12-17T07:42:07.579584", "MEAN_MOTION": 14.68930288, "ECCENTRICITY": 0.07398954, "INCLINATION": 56.9505, "RA_OF_ASC_NODE": 40.0113, "ARG_OF_PERICENTER": 227.9505, "MEAN_ANOMALY": 125.6259, "EPHEMERIS_TYPE": 0, "CLASSIFICATION_TYPE": "U", "NORAD_CAT_ID": 66877, "ELEMENT_SET_NO": 999, "REV_AT_EPOCH": 206, "BSTAR": 0.00019424049, "MEAN_MOTION_DOT": 0.01030255, "MEAN_MOTION_DDOT": 7.645753e-06}, "tle": {"line1": "1 66877U 25282A   25351.32092106  .01030255  76458-5  19424-3 0  9996", "line2": "2 66877  56.9505  40.0113 0739895 227.9505 125.6259 14.68930288  2063"}}, "geometry": {"type": "Point", "coordinates": [-60.255277171718625, -56.58695291357413]}}, {"type": "Feature", "properties": {"norad_id": 66878, "name": "STARLINK-35866", "group": "last-30-days", "lat": 32.03006375322049, "lon": -158.4772230414435, "alt_km": 320.17112326401457, "timestamp": "2025-12-17T13:48:36.281049+00:00", "meta": {"OBJECT_NAME": "STARLINK-35866", "OBJECT_ID": "2025-283A", "EPOCH": "2025-12-17T06:00:00.999648", "MEAN_MOTION": 15.82974039, "ECCENTRICITY": 0.00010395, "INCLINATION": 53.156, "RA_OF_ASC_NODE": 51.1343, "ARG_OF_PERICENTER": 73.8135, "MEAN_ANOMALY": 9.6166, "EPHEMERIS_TYPE": 0, "CLASSIFICATION_TYPE": "U", "NORAD_CAT_ID": 66878, "ELEMENT_SET_NO": 999, "REV_AT_EPOCH": 315, "BSTAR": -0.0064388154, "MEAN_MOTION_DOT": -0.01242268, "MEAN_MOTION_DDOT": 0}, "tle": {"line1": "1 66878U 25283A   25351.25001157 -.01242268  00000+0 -64388-2 0  9999", "line2": "2 66878  53.1560  51.1343 0001039  73.8135   9.6166 15.82974039  3159"}}, "geometry": {"type": "Point", "coordinates": [-158.4772230414435, 32.03006375322049]}}, {"type": "Feature", "properties": {"norad_id": 66879, "name": "STARLINK-35749", "group": "last-30-days", "lat": 28.371882826276618, "lon": -154.40116389868447, "alt_km": 320.985675707906, "timestamp": "2025-12-17T13:48:36.281059+00:00", "meta": {"OBJECT_NAME": "STARLINK-35749", "OBJECT_ID": "2025-283B", "EPOCH": "2025-12-17T06:00:00.999648", "MEAN_MOTION": 15.82943741, "ECCENTRICITY": 9.434e-05, "INCLINATION": 53.1557, "RA_OF_ASC_NODE": 51.1234, "ARG_OF_PERICENTER": 78.4037, "MEAN_ANOMALY": 10.1464, "EPHEMERIS_TYPE": 0, "CLASSIFICATION_TYPE": "U", "NORAD_CAT_ID": 66879, "ELEMENT_SET_NO": 999, "REV_AT_EPOCH": 315, "BSTAR": -0.0065228734, "MEAN_MOTION_DOT": -0.01254946, "MEAN_MOTION_DDOT": 0}, "tle": {"line1": "1 66879U 25283B   25351.25001157 -.01254946  00000+0 -65229-2 0  9991", "line2": "2 66879  53.1557  51.1234 0000943  78.4037  10.1464 15.82943741  3154"}}, "geometry": {"type": "Point", "coordinates": [-154.40116389868447, 28.371882826276618]}}, {"type": "Feature", "properties": {"norad_id": 66880, "name": "STARLINK-35844", "group": "last-30-days", "lat": 30.287622923242733, "lon": -156.4794317449722, "alt_km": 320.52714785473836, "timestamp": "2025-12-17T13:48:36.281069+00:00", "meta": {"OBJECT_NAME": "STARLINK-35844", "OBJECT_ID": "2025-283C", "EPOCH": "2025-12-17T06:00:00.999648", "MEAN_MOTION": 15.82966467, "ECCENTRICITY": 9.831e-05, "INCLINATION": 53.1561, "RA_OF_ASC_NODE": 51.1295, "ARG_OF_PERICENTER": 80.676, "MEAN_ANOMALY": 5.2075, "EPHEMERIS_TYPE": 0, "CLASSIFICATION_TYPE": "U", "NORAD_CAT_ID": 66880, "ELEMENT_SET_NO": 999, "REV_AT_EPOCH": 315, "BSTAR": -0.0064825807, "MEAN_MOTION_DOT": -0.01249306, "MEAN_MOTION_DDOT": 0}, "tle": {"line1": "1 66880U 25283C   25351.25001157 -.01249306  00000+0 -64826-2 0  9999", "line2": "2 66880  53.1561  51.1295 0000983  80.6760   5.2075 15.82966467  3153"}}, "geometry": {"type": "Point", "coordinates": [-156.4794317449722, 30.287622923242733]}}, {"type": "Feature", "properties": {"norad_id": 66881, "name": "STARLINK-35860", "group": "last-30-days", "lat": 26.760282854739398, "lon": -152.73454330195932, "alt_km": 321.24872637517274, "timestamp": "2025-12-17T13:48:36.281081+00:00", "meta": {"OBJECT_NAME": "STARLINK-35860", "OBJECT_ID": "2025-283D", "EPOCH": "2025-12-17T06:00:00.999648", "MEAN_MOTION": 15.82946081, "ECCENTRICITY": 0.00011009, "INCLINATION": 53.1557, "RA_OF_ASC_NODE": 51.1185, "ARG_OF_PERICENTER": 70.9657, "MEAN_ANOMALY": 19.7703, "EPHEMERIS_TYPE": 0, "CLASSIFICATION_TYPE": "U", "NORAD_CAT_ID": 66881, "ELEMENT_SET_NO": 999, "REV_AT_EPOCH": 315, "BSTAR": -0.0065662636, "MEAN_MOTION_DOT": -0.01262534, "MEAN_MOTION_DDOT": 0}, "tle": {"line1": "1 66881U 25283D   25351.25001157 -.01262534  00000+0 -65663-2 0  9998", "line2": "2 66881  53.1557  51.1185 0001100  70.9657  19.7703 15.82946081  3154"}}, "geometry": {"type": "Point", "coordinates": [-152.73454330195932, 26.760282854739398]}}, {"type": "Feature", "properties": {"norad_id": 66882, "name": "STARLINK-35912", "group": "last-30-days", "lat": 24.963391853225655, "lon": -150.95193560679968, "alt_km": 321.6014525503233, "timestamp": "2025-12-17T13:48:36.281093+00:00", "meta": {"OBJECT_NAME": "STARLINK-35912", "OBJECT_ID": "2025-283E", "EPOCH": "2025-12-17T06:00:00.999648", "MEAN_MOTION": 15.82945791, "ECCENTRICITY": 0.00011592, "INCLINATION": 53.156, "RA_OF_ASC_NODE": 51.1142, "ARG_OF_PERICENTER": 71.5287, "MEAN_ANOMALY": 21.6256, "EPHEMERIS_TYPE": 0, "CLASSIFICATION_TYPE": "U", "NORAD_CAT_ID": 66882, "ELEMENT_SET_NO": 999, "REV_AT_EPOCH": 315, "BSTAR": -0.0066913472, "MEAN_MOTION_DOT": -0.01283742, "MEAN_MOTION_DDOT": 0}, "tle": {"line1": "1 66882U 25283E   25351.25001157 -.01283742  00000+0 -66913-2 0  9992", "line2": "2 66882  53.1560  51.1142 0001159  71.5287  21.6256 15.82945791  3154"}}, "geometry": {"type": "Point", "coordinates": [-150.95193560679968, 24.963391853225655]}}, {"type": "Feature", "properties": {"norad_id": 66883, "name": "STARLINK-35947", "group": "last-30-days", "lat": 23.054044969217237, "lon": -149.13643713685653, "alt_km": 321.96719196036884, "timestamp": "2025-12-17T13:48:36.281102+00:00", "meta": {"OBJECT_NAME": "STARLINK-35947", "OBJECT_ID": "2025-283F", "EPOCH": "2025-12-17T06:00:00.999648", "MEAN_MOTION": 15.82942249, "ECCENTRICITY": 0.00010415, "INCLINATION": 53.1559, "RA_OF_ASC_NODE": 51.109, "ARG_OF_PERICENTER": 79.2993, "MEAN_ANOMALY": 16.4063, "EPHEMERIS_TYPE": 0, "CLASSIFICATION_TYPE": "U", "NORAD_CAT_ID": 66883, "ELEMENT_SET_NO": 999, "REV_AT_EPOCH": 320, "BSTAR": -0.0068911723, "MEAN_MOTION_DOT": -0.01317111, "MEAN_MOTION_DDOT": 0}, "tle": {"line1": "1 66883U 25283F   25351.25001157 -.01317111  00000+0 -68912-2 0  9992", "line2": "2 66883  53.1559  51.1090 0001041  79.2993  16.4063 15.82942249  3203"}}, "geometry": {"type": "Point", "coordinates": [-149.13643713685653, 23.054044969217237]}}, {"type": "Feature", "properties": {"norad_id": 66884, "name": "STARLINK-36057", "group": "last-30-days", "lat": 19.236497342200455, "lon": -145.7059358052333, "alt_km": 322.9066516387438, "timestamp": "2025-12-17T13:48:36.281112+00:00", "meta": {"OBJECT_NAME": "STARLINK-36057", "OBJECT_ID": "2025-283G", "EPOCH": "2025-12-17T06:00:00.999648", "MEAN_MOTION": 15.8291993, "ECCENTRICITY": 0.00010471, "INCLINATION": 53.1557, "RA_OF_ASC_NODE": 51.098, "ARG_OF_PERICENTER": 71.2062, "MEAN_ANOMALY": 29.5348, "EPHEMERIS_TYPE": 0, "CLASSIFICATION_TYPE": "U", "NORAD_CAT_ID": 66884, "ELEMENT_SET_NO": 999, "REV_AT_EPOCH": 315, "BSTAR": -0.0072408431, "MEAN_MOTION_DOT": -0.0137405, "MEAN_MOTION_DDOT": 0}, "tle": {"line1": "1 66884U 25283G   25351.25001157 -.01374050  00000+0 -72408-2 0  9993", "line2": "2 66884  53.1557  51.0980 0001047  71.2062  29.5348 15.82919930  3150"}}, "geometry": {"type": "Point", "coordinates": [-145.7059358052333, 19.236497342200455]}}, {"type": "Feature", "properties": {"norad_id": 66885, "name": "STARLINK-35954", "group": "last-30-days", "lat": 21.148633813704446, "lon": -147.3946459753298, "alt_km": 322.4488286331916, "timestamp": "2025-12-17T13:48:36.281144+00:00", "meta": {"OBJECT_NAME": "STARLINK-35954", "OBJECT_ID": "2025-283H", "EPOCH": "2025-12-17T06:00:00.999648", "MEAN_MOTION": 15.82938124, "ECCENTRICITY": 0.00010139, "INCLINATION": 53.1556, "RA_OF_ASC_NODE": 51.1032, "ARG_OF_PERICENTER": 74.0452, "MEAN_ANOMALY": 24.1804, "EPHEMERIS_TYPE": 0, "CLASSIFICATION_TYPE": "U", "NORAD_CAT_ID": 66885, "ELEMENT_SET_NO": 999, "REV_AT_EPOCH": 315, "BSTAR": -0.0071072965, "MEAN_MOTION_DOT": -0.01352935, "MEAN_MOTION_DDOT": 0}, "tle": {"line1": "1 66885U 25283H   25351.25001157 -.01352935  00000+0 -71073-2 0  9999", "line2": "2 66885  53.1556  51.1032 0001013  74.0452  24.1804 15.82938124  3150"}}, "geometry": {"type": "Point", "coordinates": [-147.3946459753298, 21.148633813704446]}}]}